[{"OBJECT_NAME":"STARLINK-3544","OBJECT_ID":"2022-017AM","EPOCH":"2026-03-09T22:33:44.191584","MEAN_MOTION":15.08831422,"ECCENTRICITY":0.00012801,"INCLINATION":53.2177,"RA_OF_ASC_NODE":347.9976,"ARG_OF_PERICENTER":83.4068,"MEAN_ANOMALY":276.707,"EPHEMERIS_TYPE":0,"CLASSIFICATION_TYPE":"U","NORAD_CAT_ID":51803,"ELEMENT_SET_NO":999,"REV_AT_EPOCH":22395,"BSTAR":3.325911e-5,"MEAN_MOTION_DOT":2.41e-6,"MEAN_MOTION_DDOT":0},{"OBJECT_NAME":"CZ-4B DEB","OBJECT_ID":"2010-051H","EPOCH":"2026-03-08T15:03:50.230080","MEAN_MOTION":14.83710316,"ECCENTRICITY":0.01132064,"INCLINATION":97.7035,"RA_OF_ASC_NODE":129.0061,"ARG_OF_PERICENTER":211.6401,"MEAN_ANOMALY":147.7975,"EPHEMERIS_TYPE":0,"CLASSIFICATION_TYPE":"U","NORAD_CAT_ID":38326,"ELEMENT_SET_NO":999,"REV_AT_EPOCH":80705,"BSTAR":0.001509593,"MEAN_MOTION_DOT":0.00013943,"MEAN_MOTION_DDOT":0}]
